{"type": "FeatureCollection", "features": [ {"type": "Feature", "properties": {"norad_id": 41785, "name": "ALSAT 1B", "group": "resource", "lat": 68.70174911946378, "lon": -16.985310187519307, "alt_km": 640.565455792068, "timestamp": "2025-12-17T23:38:06.520531+00:00", "meta": {"OBJECT_NAME": "ALSAT 1B", "OBJECT_ID": "2016-059C", "EPOCH": "2025-12-17T15:09:41.460768", "MEAN_MOTION": 14.72081244, "ECCENTRICITY": 0.00107659, "INCLINATION": 97.7814, "RA_OF_ASC_NODE": 3.2107, "ARG_OF_PERICENTER": 89.4641, "MEAN_ANOMALY": 270.78, "EPHEMERIS_TYPE": 0, "CLASSIFICATION_TYPE": "U", "NORAD_CAT_ID": 41785, "ELEMENT_SET_NO": 999, "REV_AT_EPOCH": 49386, "BSTAR": 7.8653682e-05, "MEAN_MOTION_DOT": 4.48e-06, "MEAN_MOTION_DDOT": 0}, "tle": {"line1": "1 41785U 16059C   25351.63172987  .00000448  00000+0  78654-4 0  9994", "line2": "2 41785  97.7814   3.2107 0010765  89.4641 270.7800 14.72081244493864"}}, "geometry": {"type": "Point", "coordinates": [-16.985310187519307, 68.70174911946378]}}, {"type": "Feature", "properties": {"norad_id": 41787, "name": "PATHFINDER 1", "group": "resource", "lat": 58.20999753415598, "lon": -18.285363360430804, "alt_km": 643.0089347773674, "timestamp": "2025-12-17T23:38:06.520541+00:00", "meta": {"OBJECT_NAME": "PATHFINDER 1", "OBJECT_ID": "2016-059E", "EPOCH": "2025-12-17T13:32:54.264480", "MEAN_MOTION": 14.67329644, "ECCENTRICITY": 0.00299422, "INCLINATION": 97.8136, "RA_OF_ASC_NODE": 354.1142, "ARG_OF_PERICENTER": 66.5561, "MEAN_ANOMALY": 293.8787, "EPHEMERIS_TYPE": 0, "CLASSIFICATION_TYPE": "U", "NORAD_CAT_ID": 41787, "ELEMENT_SET_NO": 999, "REV_AT_EPOCH": 49307, "BSTAR": 0.00012522599, "MEAN_MOTION_DOT": 6.65e-06, "MEAN_MOTION_DDOT": 0}, "tle": {"line1": "1 41787U 16059E   25351.56451695  .00000665  00000+0  12523-3 0  9997", "line2": "2 41787  97.8136 354.1142 0029942  66.5561 293.8787 14.67329644493071"}}, "geometry": {"type": "Point", "coordinates": [-18.285363360430804, 58.20999753415598]}}, {"type": "Feature", "properties": {"norad_id": 41790, "name": "SCATSAT 1", "group": "resource", "lat": -81.75462640543223, "lon": 129.99829257757645, "alt_km": 677.0808781285305, "timestamp": "2025-12-17T23:38:06.520552+00:00", "meta": {"OBJECT_NAME": "SCATSAT 1", "OBJECT_ID": "2016-059H", "EPOCH": "2025-12-17T14:17:49.902144", "MEAN_MOTION": 14.78952768, "ECCENTRICITY": 0.00564065, "INCLINATION": 98.1459, "RA_OF_ASC_NODE": 48.3266, "ARG_OF_PERICENTER": 112.6581, "MEAN_ANOMALY": 248.0608, "EPHEMERIS_TYPE": 0, "CLASSIFICATION_TYPE": "U", "NORAD_CAT_ID": 41790, "ELEMENT_SET_NO": 999, "REV_AT_EPOCH": 7474, "BSTAR": 0.00017510337, "MEAN_MOTION_DOT": 1.27e-05, "MEAN_MOTION_DDOT": 0}, "tle": {"line1": "1 41790U 16059H   25351.59571646  .00001270  00000+0  17510-3 0  9997", "line2": "2 41790  98.1459  48.3266 0056406 112.6581 248.0608 14.78952768 74740"}}, "geometry": {"type": "Point", "coordinates": [129.99829257757645, -81.75462640543223]}}, {"type": "Feature", "properties": {"norad_id": 41875, "name": "GOKTURK 1A", "group": "resource", "lat": 50.06152942504199, "lon": -125.56679350136197, "alt_km": 678.8350318448602, "timestamp": "2025-12-17T23:38:06.520562+00:00", "meta": {"OBJECT_NAME": "GOKTURK 1A", "OBJECT_ID": "2016-073A", "EPOCH": "2025-12-17T15:11:43.771200", "MEAN_MOTION": 14.62785168, "ECCENTRICITY": 0.00012501, "INCLINATION": 98.1431, "RA_OF_ASC_NODE": 243.933, "ARG_OF_PERICENTER": 79.3629, "MEAN_ANOMALY": 280.7713, "EPHEMERIS_TYPE": 0, "CLASSIFICATION_TYPE": "U", "NORAD_CAT_ID": 41875, "ELEMENT_SET_NO": 999, "REV_AT_EPOCH": 48228, "BSTAR": 8.3155942e-05, "MEAN_MOTION_DOT": 3.77e-06, "MEAN_MOTION_DDOT": 0}, "tle": {"line1": "1 41875U 16073A   25351.63314550  .00000377  00000+0  83156-4 0  9998", "line2": "2 41875  98.1431 243.9330 0001250  79.3629 280.7713 14.62785168482281"}}, "geometry": {"type": "Point", "coordinates": [-125.56679350136197, 50.06152942504199]}}, {"type": "Feature", "properties": {"norad_id": 41877, "name": "RESOURCESAT-2A", "group": "resource", "lat": 42.73983328156223, "lon": 53.60378734227887, "alt_km": 817.2875002298906, "timestamp": "2025-12-17T23:38:06.520572+00:00", "meta": {"OBJECT_NAME": "RESOURCESAT-2A", "OBJECT_ID": "2016-074A", "EPOCH": "2025-12-17T14:59:08.992032", "MEAN_MOTION": 14.21601326, "ECCENTRICITY": 0.00012793, "INCLINATION": 98.7756, "RA_OF_ASC_NODE": 61.452, "ARG_OF_PERICENTER": 231.073, "MEAN_ANOMALY": 129.0333, "EPHEMERIS_TYPE": 0, "CLASSIFICATION_TYPE": "U", "NORAD_CAT_ID": 41877, "ELEMENT_SET_NO": 999, "REV_AT_EPOCH": 46850, "BSTAR": 5.5177197e-05, "MEAN_MOTION_DOT": 7.7e-07, "MEAN_MOTION_DDOT": 0}, "tle": {"line1": "1 41877U 16074A   25351.62440963  .00000077  00000+0  55177-4 0  9997", "line2": "2 41877  98.7756  61.4520 0001279 231.0730 129.0333 14.21601326468504"}}, "geometry": {"type": "Point", "coordinates": [53.60378734227887, 42.73983328156223]}}, {"type": "Feature", "properties": {"norad_id": 41948, "name": "CARTOSAT-2D", "group": "resource", "lat": 82.47451329187747, "lon": -49.09320313425784, "alt_km": 498.5352522512794, "timestamp": "2025-12-17T23:38:06.520583+00:00", "meta": {"OBJECT_NAME": "CARTOSAT-2D", "OBJECT_ID": "2017-008A", "EPOCH": "2025-12-17T15:19:55.992000", "MEAN_MOTION": 15.19309099, "ECCENTRICITY": 0.00050271, "INCLINATION": 97.4387, "RA_OF_ASC_NODE": 49.0624, "ARG_OF_PERICENTER": 148.7559, "MEAN_ANOMALY": 211.3975, "EPHEMERIS_TYPE": 0, "CLASSIFICATION_TYPE": "U", "NORAD_CAT_ID": 41948, "ELEMENT_SET_NO": 999, "REV_AT_EPOCH": 49001, "BSTAR": 0.00023295441, "MEAN_MOTION_DOT": 4.852e-05, "MEAN_MOTION_DDOT": 0}, "tle": {"line1": "1 41948U 17008A   25351.63884250  .00004852  00000+0  23295-3 0  9996", "line2": "2 41948  97.4387  49.0624 0005027 148.7559 211.3975 15.19309099490012"}}, "geometry": {"type": "Point", "coordinates": [-49.09320313425784, 82.47451329187747]}}, {"type": "Feature", "properties": {"norad_id": 42063, "name": "SENTINEL-2B", "group": "resource", "lat": -5.800155869945412, "lon": -116.52064088403155, "alt_km": 792.7134003756064, "timestamp": "2025-12-17T23:38:06.520593+00:00", "meta": {"OBJECT_NAME": "SENTINEL-2B", "OBJECT_ID": "2017-013A", "EPOCH": "2025-12-17T16:03:23.704704", "MEAN_MOTION": 14.30818615, "ECCENTRICITY": 0.00011591, "INCLINATION": 98.5715, "RA_OF_ASC_NODE": 64.0459, "ARG_OF_PERICENTER": 92.5504, "MEAN_ANOMALY": 267.5812, "EPHEMERIS_TYPE": 0, "CLASSIFICATION_TYPE": "U", "NORAD_CAT_ID": 42063, "ELEMENT_SET_NO": 999, "REV_AT_EPOCH": 45868, "BSTAR": 0.00010001401, "MEAN_MOTION_DOT": 2.19e-06, "MEAN_MOTION_DDOT": 0}, "tle": {"line1": "1 42063U 17013A   25351.66902436  .00000219  00000+0  10001-3 0  9995", "line2": "2 42063  98.5715  64.0459 0001159  92.5504 267.5812 14.30818615458680"}}, "geometry": {"type": "Point", "coordinates": [-116.52064088403155, -5.800155869945412]}}, {"type": "Feature", "properties": {"norad_id": 42767, "name": "CARTOSAT-2E", "group": "resource", "lat": 0.7258889316910644, "lon": 49.40849795384507, "alt_km": 512.4244007107291, "timestamp": "2025-12-17T23:38:06.520603+00:00", "meta": {"OBJECT_NAME": "CARTOSAT-2E", "OBJECT_ID": "2017-036C", "EPOCH": "2025-12-17T15:43:41.670624", "MEAN_MOTION": 15.19246431, "ECCENTRICITY": 0.00022895, "INCLINATION": 97.4552, "RA_OF_ASC_NODE": 49.1784, "ARG_OF_PERICENTER": 214.9484, "MEAN_ANOMALY": 145.1601, "EPHEMERIS_TYPE": 0, "CLASSIFICATION_TYPE": "U", "NORAD_CAT_ID": 42767, "ELEMENT_SET_NO": 999, "REV_AT_EPOCH": 47058, "BSTAR": 0.00019371185, "MEAN_MOTION_DOT": 4.014e-05, "MEAN_MOTION_DDOT": 0}, "tle": {"line1": "1 42767U 17036C   25351.65534341  .00004014  00000+0  19371-3 0  9992", "line2": "2 42767  97.4552  49.1784 0002289 214.9484 145.1601 15.19246431470584"}}, "geometry": {"type": "Point", "coordinates": [49.40849795384507, 0.7258889316910644]}}, {"type": "Feature", "properties": {"norad_id": 42920, "name": "FORMOSAT-5", "group": "resource", "lat": -26.678130744358533, "lon": -117.97896307944286, "alt_km": 727.2992376250695, "timestamp": "2025-12-17T23:38:06.520613+00:00", "meta": {"OBJECT_NAME": "FORMOSAT-5", "OBJECT_ID": "2017-049A", "EPOCH": "2025-12-17T09:26:28.749984", "MEAN_MOTION": 14.50763418, "ECCENTRICITY": 0.00098811, "INCLINATION": 98.245, "RA_OF_ASC_NODE": 65.6198, "ARG_OF_PERICENTER": 285.8698, "MEAN_ANOMALY": 74.1408, "EPHEMERIS_TYPE": 0, "CLASSIFICATION_TYPE": "U", "NORAD_CAT_ID": 42920, "ELEMENT_SET_NO": 999, "REV_AT_EPOCH": 44031, "BSTAR": 5.5751028e-05, "MEAN_MOTION_DOT": 1.76e-06, "MEAN_MOTION_DDOT": 0}, "tle": {"line1": "1 42920U 17049A   25351.39338831  .00000176  00000+0  55751-4 0  9992", "line2": "2 42920  98.2450  65.6198 0009881 285.8698  74.1408 14.50763418440319"}}, "geometry": {"type": "Point", "coordinates": [-117.97896307944286, -26.678130744358533]}}, {"type": "Feature", "properties": {"norad_id": 42969, "name": "SENTINEL-5P", "group": "resource", "lat": 10.103442540158994, "lon": -71.05546399259136, "alt_km": 828.3334064812052, "timestamp": "2025-12-17T23:38:06.520624+00:00", "meta": {"OBJECT_NAME": "SENTINEL-5P", "OBJECT_ID": "2017-064A", "EPOCH": "2025-12-17T10:03:13.683168", "MEAN_MOTION": 14.19518686, "ECCENTRICITY": 0.00010019, "INCLINATION": 98.7789, "RA_OF_ASC_NODE": 289.9616, "ARG_OF_PERICENTER": 89.7606, "MEAN_ANOMALY": 270.3685, "EPHEMERIS_TYPE": 0, "CLASSIFICATION_TYPE": "U", "NORAD_CAT_ID": 42969, "ELEMENT_SET_NO": 999, "REV_AT_EPOCH": 42377, "BSTAR": 4.3985693e-05, "MEAN_MOTION_DOT": 4.9e-07, "MEAN_MOTION_DDOT": 0}, "tle": {"line1": "1 42969U 17064A   25351.41890837  .00000049  00000+0  43986-4 0  9990", "line2": "2 42969  98.7789 289.9616 0001001  89.7606 270.3685 14.19518686423772"}}, "geometry": {"type": "Point", "coordinates": [-71.05546399259136, 10.103442540158994]}}]}